[{"OBJECT_NAME":"OBJECT A","OBJECT_ID":"2023-189A","EPOCH":"2026-03-09T22:59:06.381600","MEAN_MOTION":15.32403275,"ECCENTRICITY":0.00094831,"INCLINATION":97.4458,"RA_OF_ASC_NODE":86.5997,"ARG_OF_PERICENTER":249.5377,"MEAN_ANOMALY":110.4847,"EPHEMERIS_TYPE":0,"CLASSIFICATION_TYPE":"U","NORAD_CAT_ID":58502,"ELEMENT_SET_NO":999,"REV_AT_EPOCH":12601,"BSTAR":0.00019874471,"MEAN_MOTION_DOT":6.146e-5,"MEAN_MOTION_DDOT":0},{"OBJECT_NAME":"STARLINK-31359","OBJECT_ID":"2024-027Q","EPOCH":"2026-03-09T20:38:17.799936","MEAN_MOTION":15.30181732,"ECCENTRICITY":0.00012847,"INCLINATION":53.1579,"RA_OF_ASC_NODE":270.3947,"ARG_OF_PERICENTER":99.4481,"MEAN_ANOMALY":260.6665,"EPHEMERIS_TYPE":0,"CLASSIFICATION_TYPE":"U","NORAD_CAT_ID":58945,"ELEMENT_SET_NO":999,"REV_AT_EPOCH":11790,"BSTAR":5.5195127e-5,"MEAN_MOTION_DOT":1.275e-5,"MEAN_MOTION_DDOT":0}]
